NORAD_CAT_ID,OBJECT_NAME,OBJECT_TYPE,EPOCH,MEAN_MOTION,ECCENTRICITY,INCLINATION,RA_OF_ASC_NODE,ARG_OF_PERICENTER,MEAN_ANOMALY,BSTAR,MEAN_MOTION_DOT,MEAN_MOTION_DDOT,TLE_LINE0,TLE_LINE1,TLE_LINE2,SEMIMAJOR_AXIS,PERIOD,APOGEE,PERIGEE,DECAYED
56805.0,STARLINK-6064,PAYLOAD,2023-12-30 19:45:45,14.98343486,0.0003119,69.999,181.1051,272.4601,87.62,-0.00032811,-4.007e-05,0.0,0 STARLINK-6064,1 56805U 23078AQ  23364.82344418 -.00004007  00000-0 -32811-3 0  9997,2 56805  69.9990 181.1051 0003119 272.4601  87.6200 14.98343486 33628,6950.151,96.106,574.184,569.848,0.0
56805.0,STARLINK-6064,PAYLOAD,2023-12-30 21:21:53,14.98342974,0.0003115,69.999,180.9368,272.417,87.6632,-0.00032491,-3.969e-05,0.0,0 STARLINK-6064,1 56805U 23078AQ  23364.89020390 -.00003969  00000-0 -32491-3 0  9994,2 56805  69.9990 180.9368 0003115 272.4170  87.6632 14.98342974 33375,6950.153,96.106,574.183,569.853,0.0
56805.0,STARLINK-6064,PAYLOAD,2023-12-31 11:47:06,14.98318475,0.0002872,69.9996,179.4226,270.5853,89.4977,1.6892e-05,1.09e-06,0.0,0 STARLINK-6064,1 56805U 23078AQ  23365.49104916  .00000109  00000-0  16892-4 0  9997,2 56805  69.9996 179.4226 0002872 270.5853  89.4977 14.98318475 33723,6950.229,96.108,574.09,570.097,0.0
56805.0,STARLINK-6064,PAYLOAD,2023-12-31 21:23:55,14.98318484,0.0002876,69.9997,178.4128,270.7031,89.3799,1.4985e-05,8.6e-07,0.0,0 STARLINK-6064,1 56805U 23078AQ  23365.89161206  .00000086  00000-0  14985-4 0  9991,2 56805  69.9997 178.4128 0002876 270.7031  89.3799 14.98318484 33527,6950.229,96.108,574.092,570.095,0.0
56805.0,STARLINK-6064,PAYLOAD,2024-01-01 11:49:07,14.98323403,0.0002928,69.9995,176.8976,271.1114,88.9709,3.191e-05,2.88e-06,0.0,0 STARLINK-6064,1 56805U 23078AQ  24001.49245191  .00000288  00000-0  31910-4 0  9992,2 56805  69.9995 176.8976 0002928 271.1114  88.9709 14.98323403 33874,6950.213,96.107,574.113,570.043,0.0
56805.0,STARLINK-6064,PAYLOAD,2024-01-01 15:01:24,14.98323209,0.000294,69.9995,176.561,271.3337,88.7486,2.8399e-05,2.46e-06,0.0,0 STARLINK-6064,1 56805U 23078AQ  24001.62597268  .00000246  00000-0  28399-4 0  9993,2 56805  69.9995 176.5610 0002940 271.3337  88.7486 14.98323209 33637,6950.214,96.107,574.122,570.036,0.0
56805.0,STARLINK-6064,PAYLOAD,2024-01-01 21:25:56,14.98324237,0.0002947,69.9995,175.8878,271.7084,88.3737,3.7647e-05,3.56e-06,0.0,0 STARLINK-6064,1 56805U 23078AQ  24001.89301290  .00000356  00000-0  37647-4 0  9998,2 56805  69.9995 175.8878 0002947 271.7084  88.3737 14.98324237 33676,6950.211,96.107,574.124,570.027,0.0
56805.0,STARLINK-6064,PAYLOAD,2024-01-02 11:51:08,14.98325566,0.0003013,69.9994,174.3731,272.5371,87.5443,4.3126e-05,4.22e-06,0.0,0 STARLINK-6064,1 56805U 23078AQ  24002.49385384  .00000422  00000-0  43126-4 0  9994,2 56805  69.9994 174.3731 0003013 272.5371  87.5443 14.98325566 34021,6950.207,96.107,574.166,569.978,0.0
56805.0,STARLINK-6064,PAYLOAD,2024-01-02 13:27:17,14.98325739,0.0003012,69.9994,174.2047,272.3949,87.6865,4.4216e-05,4.35e-06,0.0,0 STARLINK-6064,1 56805U 23078AQ  24002.56061386  .00000435  00000-0  44216-4 0  9990,2 56805  69.9994 174.2047 0003012 272.3949  87.6865 14.98325739 33770,6950.206,96.107,574.164,569.978,0.0
56805.0,STARLINK-6064,PAYLOAD,2024-01-02 21:27:57,14.9832765,0.0002991,69.9994,173.3631,272.0967,87.985,6.1503e-05,6.41e-06,0.0,0 STARLINK-6064,1 56805U 23078AQ  24002.89441284  .00000641  00000-0  61503-4 0  9992,2 56805  69.9994 173.3631 0002991 272.0967  87.9850 14.98327650 33828,6950.2,96.107,574.144,569.986,0.0
56805.0,STARLINK-6064,PAYLOAD,2024-01-03 11:53:10,14.98325611,0.0002902,69.9996,171.848,271.7426,88.34,-3.8265e-06,-1.39e-06,0.0,0 STARLINK-6064,1 56805U 23078AQ  24003.49525716 -.00000139  00000-0 -38265-5 0  9996,2 56805  69.9996 171.8480 0002902 271.7426  88.3400 14.98325611 34173,6950.206,96.107,574.088,570.055,0.0
56805.0,STARLINK-6064,PAYLOAD,2024-01-03 13:29:18,14.98325314,0.0002915,69.9996,171.6797,271.4452,88.6373,-8.9674e-06,-2e-06,0.0,0 STARLINK-6064,1 56805U 23078AQ  24003.56201760 -.00000200  00000-0 -89674-5 0  9993,2 56805  69.9996 171.6797 0002915 271.4452  88.6373 14.98325314 33926,6950.207,96.107,574.098,570.046,0.0
56805.0,STARLINK-6064,PAYLOAD,2024-01-03 21:29:58,14.98341319,0.000254,69.9997,170.8381,263.6692,96.4178,-0.00026976,-3.311e-05,0.0,0 STARLINK-6064,1 56805U 23078AQ  24003.89581422 -.00003311  00000-0 -26976-3 0  9995,2 56805  69.9997 170.8381 0002540 263.6692  96.4178 14.98341319 33978,6950.158,96.106,573.788,570.258,0.0
56805.0,STARLINK-6064,PAYLOAD,2024-01-04 11:55:11,14.98329541,0.0003105,69.9994,169.3231,273.7834,86.297,2.6262e-06,-6.2e-07,0.0,0 STARLINK-6064,1 56805U 23078AQ  24004.49665565 -.00000062  00000-0  26262-5 0  9992,2 56805  69.9994 169.3231 0003105 273.7834  86.2970 14.98329541 34320,6950.194,96.107,574.217,569.901,0.0
56805.0,STARLINK-6064,PAYLOAD,2024-01-04 13:31:19,14.98329678,0.0003107,69.9995,169.1548,274.0125,86.0679,4.1816e-06,-4.3e-07,0.0,0 STARLINK-6064,1 56805U 23078AQ  24004.56341556 -.00000043  00000-0  41816-5 0  9992,2 56805  69.9995 169.1548 0003107 274.0125  86.0679 14.98329678 34076,6950.194,96.107,574.218,569.899,0.0
56805.0,STARLINK-6064,PAYLOAD,2024-01-04 21:31:59,14.98332769,0.0002821,69.9995,168.3136,262.8871,97.1967,3.3019e-05,3.01e-06,0.0,0 STARLINK-6064,1 56805U 23078AQ  24004.89721208  .00000301  00000-0  33019-4 0  9995,2 56805  69.9995 168.3136 0002821 262.8871  97.1967 14.98332769 34129,6950.184,96.107,574.01,570.089,0.0
56805.0,STARLINK-6064,PAYLOAD,2024-01-05 11:57:12,14.98325964,0.0002702,70.0005,166.7986,261.7518,98.3334,4.1612e-05,4.04e-06,0.0,0 STARLINK-6064,1 56805U 23078AQ  24005.49805577  .00000404  00000-0  41612-4 0  9996,2 56805  70.0005 166.7986 0002702 261.7518  98.3334 14.98325964 34471,6950.205,96.107,573.948,570.192,0.0
56805.0,STARLINK-6064,PAYLOAD,2024-01-05 13:33:20,14.98326226,0.0003084,69.9994,166.6299,270.912,89.1685,2.2004e-05,1.7e-06,0.0,0 STARLINK-6064,1 56805U 23078AQ  24005.56481642  .00000170  00000-0  22004-4 0  9991,2 56805  69.9994 166.6299 0003084 270.9120  89.1685 14.98326226 34228,6950.205,96.107,574.213,569.926,0.0
56805.0,STARLINK-6064,PAYLOAD,2024-01-05 19:57:52,14.98325338,0.0002842,70.0003,165.9577,267.0084,93.075,2.4027e-05,1.94e-06,0.0,0 STARLINK-6064,1 56805U 23078AQ  24005.83185763  .00000194  00000-0  24027-4 0  9999,2 56805  70.0003 165.9577 0002842 267.0084  93.0750 14.98325338 34264,6950.207,96.107,574.048,570.097,0.0
56805.0,STARLINK-6064,PAYLOAD,2024-01-06 18:23:45,14.98330199,0.000285,70.0003,163.6016,266.0757,94.0077,-1.8386e-05,-3.12e-06,0.0,0 STARLINK-6064,1 56805U 23078AQ  24006.76649583 -.00000312  00000-0 -18386-4 0  9992,2 56805  70.0003 163.6016 0002850 266.0757  94.0077 14.98330199 34660,6950.192,96.107,574.038,570.076,0.0
56805.0,STARLINK-6064,PAYLOAD,2024-01-06 19:59:53,14.98330517,0.0002855,70.0003,163.4333,266.3776,93.7056,-1.4631e-05,-2.68e-06,0.0,0 STARLINK-6064,1 56805U 23078AQ  24006.83325551 -.00000268  00000-0 -14631-4 0  9995,2 56805  70.0003 163.4333 0002855 266.3776  93.7056 14.98330517 34419,6950.191,96.107,574.041,570.072,0.0
56805.0,STARLINK-6064,PAYLOAD,2024-01-07 13:37:21,14.98329152,0.000284,70.0005,161.5822,265.0521,95.0314,3.807e-05,3.61e-06,0.0,0 STARLINK-6064,1 56805U 23078AQ  24007.56761441  .00000361  00000-0  38070-4 0  9993,2 56805  70.0005 161.5822 0002840 265.0521  95.0314 14.98329152 34528,6950.196,96.107,574.034,570.087,0.0
56805.0,STARLINK-6064,PAYLOAD,2024-01-07 20:01:54,14.98329593,0.0002863,70.0005,160.9089,265.7191,94.3641,3.8657e-05,3.68e-06,0.0,0 STARLINK-6064,1 56805U 23078AQ  24007.83465422  .00000368  00000-0  38657-4 0  9991,2 56805  70.0005 160.9089 0002863 265.7191  94.3641 14.98329593 34828,6950.194,96.107,574.049,570.069,0.0
56805.0,STARLINK-6064,PAYLOAD,2024-01-08 13:39:22,14.98329197,0.0002824,70.0007,159.0577,265.0023,95.0814,-6.4744e-06,-1.7e-06,0.0,0 STARLINK-6064,1 56805U 23078AQ  24008.56901585 -.00000170  00000-0 -64744-5 0  9997,2 56805  70.0007 159.0577 0002824 265.0023  95.0814 14.98329197 34678,6950.195,96.107,574.023,570.098,0.0
56805.0,STARLINK-6064,PAYLOAD,2024-01-08 20:03:55,14.98326961,0.0002905,70.0006,158.3844,267.1063,92.9764,-3.482e-05,-5.08e-06,0.0,0 STARLINK-6064,1 56805U 23078AQ  24008.83605844 -.00000508  00000-0 -34820-4 0  9992,2 56805  70.0006 158.3844 0002905 267.1063  92.9764 14.98326961 34972,6950.202,96.107,574.086,570.048,0.0
56805.0,STARLINK-6064,PAYLOAD,2024-01-09 13:41:23,14.98331663,0.0003042,70.0004,156.5323,270.6711,89.4099,-5.3668e-07,-9.9e-07,0.0,0 STARLINK-6064,1 56805U 23078AQ  24009.57041420 -.00000099  00000-0 -53668-6 0  9996,2 56805  70.0004 156.5323 0003042 270.6711  89.4099 14.98331663 34825,6950.188,96.107,574.167,569.939,0.0
56805.0,STARLINK-6064,PAYLOAD,2024-01-09 20:05:55,14.9833554,0.0002993,70.0005,155.859,270.1543,89.9273,4.3759e-05,4.29e-06,0.0,0 STARLINK-6064,1 56805U 23078AQ  24009.83744989  .00000429  00000-0  43759-4 0  9998,2 56805  70.0005 155.8590 0002993 270.1543  89.9273 14.98335540 35127,6950.176,96.107,574.121,569.961,0.0
56805.0,STARLINK-6064,PAYLOAD,2024-01-10 10:31:08,14.98329073,0.0002703,70.0008,154.3442,266.0758,94.0092,3.4598e-05,3.2e-06,0.0,0 STARLINK-6064,1 56805U 23078AQ  24010.43829325  .00000320  00000-0  34598-4 0  9995,2 56805  70.0008 154.3442 0002703 266.0758  94.0092 14.98329073 35211,6950.196,96.107,573.939,570.182,0.0
56805.0,STARLINK-6064,PAYLOAD,2024-01-11 12:09:17,14.98331205,0.0002848,70.0009,151.6513,263.6702,96.4133,-2.5917e-05,-4.02e-06,0.0,0 STARLINK-6064,1 56805U 23078AQ  24011.50645217 -.00000402  00000-0 -25917-4 0  9998,2 56805  70.0009 151.6513 0002848 263.6702  96.4133 14.98331205 35372,6950.189,96.107,574.034,570.075,0.0
56805.0,STARLINK-6064,PAYLOAD,2024-01-11 13:45:25,14.98331164,0.0002849,70.0009,151.483,263.7914,96.2921,-2.5572e-05,-3.98e-06,0.0,0 STARLINK-6064,1 56805U 23078AQ  24011.57321212 -.00000398  00000-0 -25572-4 0  9992,2 56805  70.0009 151.4830 0002849 263.7914  96.2921 14.98331164 35129,6950.189,96.107,574.034,570.074,0.0
